[{"OBJECT_NAME":"TRANSPORTER-12 OBJECT AZ","OBJECT_ID":"2025-009AZ","EPOCH":"2026-03-09T17:02:46.667040","MEAN_MOTION":15.30349724,"ECCENTRICITY":9.87e-5,"INCLINATION":97.3981,"RA_OF_ASC_NODE":151.9913,"ARG_OF_PERICENTER":45.3581,"MEAN_ANOMALY":314.774,"EPHEMERIS_TYPE":0,"CLASSIFICATION_TYPE":"U","NORAD_CAT_ID":62656,"ELEMENT_SET_NO":999,"REV_AT_EPOCH":6379,"BSTAR":0.00054902545,"MEAN_MOTION_DOT":0.00016057,"MEAN_MOTION_DDOT":0},{"OBJECT_NAME":"STARLINK-35504","OBJECT_ID":"2025-253G","EPOCH":"2026-03-09T17:06:13.040352","MEAN_MOTION":15.27623063,"ECCENTRICITY":9.282e-5,"INCLINATION":43.0012,"RA_OF_ASC_NODE":212.755,"ARG_OF_PERICENTER":285.3928,"MEAN_ANOMALY":74.6821,"EPHEMERIS_TYPE":0,"CLASSIFICATION_TYPE":"U","NORAD_CAT_ID":66325,"ELEMENT_SET_NO":999,"REV_AT_EPOCH":2024,"BSTAR":0.0013791978,"MEAN_MOTION_DOT":0.00037936,"MEAN_MOTION_DDOT":0}]
