TRANSPORTER-12 OBJECT AZ
1 62656U 25009AZ  26068.71026235  .00016057  00000+0  54903-3 0  9991
2 62656  97.3981 151.9913 0000987  45.3581 314.7740 15.30349724 63792
STARLINK-35504          
1 66325U 25253G   26068.71265093  .00037936  00000+0  13792-2 0  9995
2 66325  43.0012 212.7550 0000928 285.3928  74.6821 15.27623063 20243
